NORAD_CAT_ID,OBJECT_NAME,OBJECT_TYPE,EPOCH,MEAN_MOTION,ECCENTRICITY,INCLINATION,RA_OF_ASC_NODE,ARG_OF_PERICENTER,MEAN_ANOMALY,BSTAR,MEAN_MOTION_DOT,MEAN_MOTION_DDOT,TLE_LINE0,TLE_LINE1,TLE_LINE2,SEMIMAJOR_AXIS,PERIOD,APOGEE,PERIGEE,DECAYED
53819.0,STARLINK-4738,PAYLOAD,2023-11-20 14:23:37,15.08842422,0.0001304,53.2181,115.6231,89.9971,270.1171,4.3605e-05,4.06e-06,0.0,0 STARLINK-4738,1 53819U 22114B   23324.59973657  .00000406  00000-0  43605-4 0  9993,2 53819  53.2181 115.6231 0001304  89.9971 270.1171 15.08842422 66005,6917.873,95.437,540.64,538.836,0.0
53819.0,STARLINK-4738,PAYLOAD,2023-11-20 17:34:23,15.088441,0.0001325,53.2182,115.0285,89.9172,270.1972,5.5511e-05,5.96e-06,0.0,0 STARLINK-4738,1 53819U 22114B   23324.73221495  .00000596  00000-0  55511-4 0  9994,2 53819  53.2182 115.0285 0001325  89.9172 270.1972 15.08844100 65480,6917.868,95.437,540.649,538.816,0.0
53819.0,STARLINK-4738,PAYLOAD,2023-11-21 03:06:42,15.08836544,0.0001281,53.2181,113.2441,85.8542,274.2596,2.1633e-05,5.6e-07,0.0,0 STARLINK-4738,1 53819U 22114B   23325.12965952  .00000056  00000-0  21633-4 0  9990,2 53819  53.2181 113.2441 0001281  85.8542 274.2596 15.08836544 65547,6917.891,95.438,540.642,538.87,0.0
53819.0,STARLINK-4738,PAYLOAD,2023-11-21 11:03:38,15.08837979,0.0001255,53.218,111.7573,86.8376,273.276,3.8552e-05,3.26e-06,0.0,0 STARLINK-4738,1 53819U 22114B   23325.46085914  .00000326  00000-0  38552-4 0  9996,2 53819  53.2180 111.7573 0001255  86.8376 273.2760 15.08837979 66133,6917.887,95.438,540.62,538.883,0.0
53819.0,STARLINK-4738,PAYLOAD,2023-11-21 15:49:47,15.0884239,0.0001358,53.218,110.8651,85.9271,274.1876,7.6397e-05,9.28e-06,0.0,0 STARLINK-4738,1 53819U 22114B   23325.65957623  .00000928  00000-0  76397-4 0  9999,2 53819  53.2180 110.8651 0001358  85.9271 274.1876 15.08842390 66162,6917.873,95.437,540.678,538.799,0.0
53819.0,STARLINK-4738,PAYLOAD,2023-11-22 14:05:10,15.08850275,0.000138,53.2182,106.7023,85.5833,274.5317,0.00013921,1.929e-05,0.0,0 STARLINK-4738,1 53819U 22114B   23326.58692958  .00001929  00000-0  13921-3 0  9994,2 53819  53.2182 106.7023 0001380  85.5833 274.5317 15.08850275 66307,6917.849,95.437,540.669,538.759,0.0
53819.0,STARLINK-4738,PAYLOAD,2023-11-22 17:15:56,15.08855495,0.0001396,53.2171,106.1073,81.4392,278.6759,0.00024557,3.624e-05,0.0,0 STARLINK-4738,1 53819U 22114B   23326.71940784  .00003624  00000-0  24557-3 0  9993,2 53819  53.2171 106.1073 0001396  81.4392 278.6759 15.08855495 65781,6917.833,95.437,540.664,538.732,0.0
53819.0,STARLINK-4738,PAYLOAD,2023-11-23 09:09:49,15.08834851,0.000153,53.2172,103.1338,78.9381,281.1784,6.1653e-05,6.93e-06,0.0,0 STARLINK-4738,1 53819U 22114B   23327.38182157  .00000693  00000-0  61653-4 0  9991,2 53819  53.2172 103.1338 0001530  78.9381 281.1784 15.08834851 65883,6917.896,95.438,540.82,538.703,0.0
53819.0,STARLINK-4738,PAYLOAD,2023-11-23 13:55:58,15.0882928,0.0001156,53.2174,102.2421,75.5602,284.5518,-5.4233e-05,-1.151e-05,0.0,0 STARLINK-4738,1 53819U 22114B   23327.58054299 -.00001151  00000-0 -54233-4 0  9996,2 53819  53.2174 102.2421 0001156  75.5602 284.5518 15.08829280 66457,6917.913,95.438,540.578,538.978,0.0
53819.0,STARLINK-4738,PAYLOAD,2023-11-23 15:31:22,15.08829639,0.0001419,53.2167,101.9437,86.8452,273.2703,-5.0255e-05,-1.087e-05,0.0,0 STARLINK-4738,1 53819U 22114B   23327.64678344 -.00001087  00000-0 -50255-4 0  9994,2 53819  53.2167 101.9437 0001419  86.8452 273.2703 15.08829639 66462,6917.912,95.438,540.759,538.795,0.0
53819.0,STARLINK-4738,PAYLOAD,2023-11-24 12:11:22,15.08840881,0.0001307,53.2169,98.0779,90.5853,269.5289,0.00022797,3.342e-05,0.0,0 STARLINK-4738,1 53819U 22114B   23328.50790477  .00003342  00000-0  22797-3 0  9995,2 53819  53.2169  98.0779 0001307  90.5853 269.5289 15.08840881 66056,6917.878,95.437,540.647,538.839,0.0
53819.0,STARLINK-4738,PAYLOAD,2023-11-24 13:46:46,15.08839934,0.0001536,53.2174,97.7841,72.5705,287.5455,0.00034631,5.228e-05,0.0,0 STARLINK-4738,1 53819U 22114B   23328.57414767  .00005228  00000-0  34631-3 0  9992,2 53819  53.2174  97.7841 0001536  72.5705 287.5455 15.08839934 66601,6917.881,95.438,540.808,538.683,0.0
53819.0,STARLINK-4738,PAYLOAD,2023-11-24 15:22:09,15.08845135,0.0001452,53.2171,97.4828,82.0777,278.038,0.00046177,7.07e-05,0.0,0 STARLINK-4738,1 53819U 22114B   23328.64038549  .00007070  00000-0  46177-3 0  9995,2 53819  53.2171  97.4828 0001452  82.0777 278.0380 15.08845135 66615,6917.865,95.437,540.734,538.725,0.0
53819.0,STARLINK-4738,PAYLOAD,2023-11-25 13:37:32,15.0885879,0.0001598,53.2183,93.3216,96.5655,263.552,0.00064114,9.936e-05,0.0,0 STARLINK-4738,1 53819U 22114B   23329.56774201  .00009936  00000-0  64114-3 0  9993,2 53819  53.2183  93.3216 0001598  96.5655 263.5520 15.08858790 66751,6917.823,95.436,540.793,538.582,0.0
53819.0,STARLINK-4738,PAYLOAD,2023-11-25 18:23:41,15.08867366,0.0001577,53.2175,92.427,98.8591,261.258,0.00072774,0.00011322,0.0,0 STARLINK-4738,1 53819U 22114B   23329.76645713  .00011322  00000-0  72774-3 0  9993,2 53819  53.2175  92.4270 0001577  98.8591 261.2580 15.08867366 66786,6917.797,95.436,540.753,538.571,0.0
53819.0,STARLINK-4738,PAYLOAD,2023-11-26 11:52:55,15.08856352,0.0001669,53.2184,89.1511,111.457,248.66,0.00023371,3.435e-05,0.0,0 STARLINK-4738,1 53819U 22114B   23330.49509005  .00003435  00000-0  23371-3 0  9993,2 53819  53.2184  89.1511 0001669 111.4570 248.6600 15.08856352 66356,6917.83,95.437,540.85,538.541,0.0
53819.0,STARLINK-4738,PAYLOAD,2023-11-26 13:28:20,15.08792532,0.0001718,53.2184,88.8581,46.5147,313.5987,-0.0013642,-0.00021906,0.0,0 STARLINK-4738,1 53819U 22114B   23330.56134668 -.00021906  00000-0 -13642-2 0  9994,2 53819  53.2184  88.8581 0001718  46.5147 313.5987 15.08792532 66902,6918.025,95.441,541.079,538.702,0.0
53819.0,STARLINK-4738,PAYLOAD,2023-11-26 18:14:27,15.08867073,0.0001474,53.2188,87.9694,109.4493,250.6659,0.00036088,5.464e-05,0.0,0 STARLINK-4738,1 53819U 22114B   23330.76004432  .00005464  00000-0  36088-3 0  9990,2 53819  53.2188  87.9694 0001474 109.4493 250.6659 15.08867073 66936,6917.798,95.436,540.682,538.643,0.0
53819.0,STARLINK-4738,PAYLOAD,2023-11-27 11:43:43,15.08831889,0.0002639,53.2182,84.6867,134.5534,225.5674,-0.00029307,-4.949e-05,0.0,0 STARLINK-4738,1 53819U 22114B   23331.48869744 -.00004949  00000-0 -29307-3 0  9990,2 53819  53.2182  84.6867 0002639 134.5534 225.5674 15.08831889 66502,6917.905,95.438,541.596,537.945,0.0
53819.0,STARLINK-4738,PAYLOAD,2023-11-27 13:19:09,15.08767185,0.0002563,53.2194,84.4017,21.6416,338.4684,-0.0014511,-0.00023264,0.0,0 STARLINK-4738,1 53819U 22114B   23331.55496538 -.00023264  00000-0 -14511-2 0  9996,2 53819  53.2194  84.4017 0002563  21.6416 338.4684 15.08767185 67054,6918.103,95.442,541.741,538.195,0.0
53819.0,STARLINK-4738,PAYLOAD,2023-11-27 14:54:28,15.08881772,0.0001972,53.2194,84.1029,164.0063,196.0992,0.00084024,0.00013125,0.0,0 STARLINK-4738,1 53819U 22114B   23331.62116341  .00013125  00000-0  84024-3 0  9995,2 53819  53.2194  84.1029 0001972 164.0063 196.0992 15.08881772 66527,6917.753,95.435,540.982,538.254,0.0
53819.0,STARLINK-4738,PAYLOAD,2023-11-28 14:45:17,15.08793917,0.0002216,53.2191,79.6421,61.7565,298.3651,0.0023655,0.00037513,0.0,0 STARLINK-4738,1 53819U 22114B   23332.61479162  .00037513  00000-0  23655-2 0  9997,2 53819  53.2191  79.6421 0002216  61.7565 298.3651 15.08793917 67219,6918.021,95.44,541.419,538.353,0.0
53819.0,STARLINK-4738,PAYLOAD,2023-11-28 16:20:41,15.08776499,0.0001799,53.2195,79.3403,92.1849,267.935,0.003168,0.00050404,0.0,0 STARLINK-4738,1 53819U 22114B   23332.68103170  .00050404  00000-0  31680-2 0  9998,2 53819  53.2195  79.3403 0001799  92.1849 267.9350 15.08776499 66682,6918.074,95.442,541.184,538.695,0.0
53819.0,STARLINK-4738,PAYLOAD,2023-11-29 11:25:19,15.08830421,0.0002184,53.22,75.7841,44.1824,315.9342,-7.6404e-05,-1.504e-05,0.0,0 STARLINK-4738,1 53819U 22114B   23333.47591489 -.00001504  00000-0 -76404-4 0  9994,2 53819  53.2200  75.7841 0002184  44.1824 315.9342 15.08830421 66809,6917.91,95.438,541.286,538.264,0.0
53819.0,STARLINK-4738,PAYLOAD,2023-11-29 14:36:04,15.08845023,0.0002111,53.2192,75.1829,57.2094,302.9102,0.00019314,2.787e-05,0.0,0 STARLINK-4738,1 53819U 22114B   23333.60838957  .00002787  00000-0  19314-3 0  9991,2 53819  53.2192  75.1829 0002111  57.2094 302.9102 15.08845023 67369,6917.865,95.437,541.19,538.27,0.0
53819.0,STARLINK-4738,PAYLOAD,2023-11-30 11:16:05,15.08842154,0.0001582,53.2182,71.3174,73.9728,286.1439,0.00019454,2.81e-05,0.0,0 STARLINK-4738,1 53819U 22114B   23334.46951097  .00002810  00000-0  19454-3 0  9999,2 53819  53.2182  71.3174 0001582  73.9728 286.1439 15.08842154 66951,6917.874,95.437,540.833,538.644,0.0
53819.0,STARLINK-4738,PAYLOAD,2023-12-01 12:42:16,15.08834516,0.0001258,53.2181,66.5653,73.9837,286.1293,5.9957e-05,6.66e-06,0.0,0 STARLINK-4738,1 53819U 22114B   23335.52935416  .00000666  00000-0  59957-4 0  9994,2 53819  53.2181  66.5653 0001258  73.9837 286.1293 15.08834516 67119,6917.897,95.438,540.632,538.892,0.0
53819.0,STARLINK-4738,PAYLOAD,2023-12-02 10:57:38,15.08885522,0.0001993,53.2192,62.3962,113.4591,246.6611,0.0013448,0.00021206,0.0,0 STARLINK-4738,1 53819U 22114B   23336.45669807  .00021206  00000-0  13448-2 0  9991,2 53819  53.2192  62.3962 0001993 113.4591 246.6611 15.08885522 67254,6917.741,95.435,540.985,538.228,0.0
53819.0,STARLINK-4738,PAYLOAD,2023-12-02 12:33:02,15.08877864,0.0001619,53.2185,62.1004,88.7852,271.3326,0.0011244,0.00017671,0.0,0 STARLINK-4738,1 53819U 22114B   23336.52294004  .00017671  00000-0  11244-2 0  9995,2 53819  53.2185  62.1004 0001619  88.7852 271.3326 15.08877864 67809,6917.765,95.435,540.75,538.51,0.0
53819.0,STARLINK-4738,PAYLOAD,2023-12-03 12:23:50,15.08812041,0.0001582,53.2186,57.6462,113.7978,246.318,-0.00065212,-0.00010644,0.0,0 STARLINK-4738,1 53819U 22114B   23337.51655930 -.00010644  00000-0 -65212-3 0  9994,2 53819  53.2186  57.6462 0001582 113.7978 246.3180 15.08812041 67417,6917.966,95.439,540.925,538.736,0.0
